CCSDS_OMM_VERS = 2.0
CREATION_DATE  = 
ORIGINATOR     = 

OBJECT_NAME    = STARLINK-35920
OBJECT_ID      = 2025-271G
CENTER_NAME    = EARTH
REF_FRAME      = TEME
TIME_SYSTEM    = UTC
MEAN_ELEMENT_THEORY = SGP/SGP4

EPOCH          = 2025-12-08T14:00:01.999872
MEAN_MOTION    = 15.67971642
ECCENTRICITY   = .00012232
INCLINATION    = 53.1594
RA_OF_ASC_NODE = 207.3654
ARG_OF_PERICENTER = 94.6676
MEAN_ANOMALY   = 67.3420

EPHEMERIS_TYPE = 0
CLASSIFICATION_TYPE = U
NORAD_CAT_ID   = 66623
ELEMENT_SET_NO = 999
REV_AT_EPOCH   = 357
BSTAR          = -.19068414E-1
MEAN_MOTION_DOT = -.1907098E-1
MEAN_MOTION_DDOT = 0

CCSDS_OMM_VERS = 2.0
CREATION_DATE  = 
ORIGINATOR     = 

OBJECT_NAME    = STARLINK-35927
OBJECT_ID      = 2025-271H
CENTER_NAME    = EARTH
REF_FRAME      = TEME
TIME_SYSTEM    = UTC
MEAN_ELEMENT_THEORY = SGP/SGP4

EPOCH          = 2025-12-08T14:00:01.999872
MEAN_MOTION    = 15.67985021
ECCENTRICITY   = .0001107
INCLINATION    = 53.1595
RA_OF_ASC_NODE = 207.3697
ARG_OF_PERICENTER = 100.5786
MEAN_ANOMALY   = 59.5044

EPHEMERIS_TYPE = 0
CLASSIFICATION_TYPE = U
NORAD_CAT_ID   = 66624
ELEMENT_SET_NO = 999
REV_AT_EPOCH   = 357
BSTAR          = -.19224086E-1
MEAN_MOTION_DOT = -.1921736E-1
MEAN_MOTION_DDOT = 0

CCSDS_OMM_VERS = 2.0
CREATION_DATE  = 
ORIGINATOR     = 

OBJECT_NAME    = STARLINK-35929
OBJECT_ID      = 2025-271J
CENTER_NAME    = EARTH
REF_FRAME      = TEME
TIME_SYSTEM    = UTC
MEAN_ELEMENT_THEORY = SGP/SGP4

EPOCH          = 2025-12-08T14:00:01.999872
MEAN_MOTION    = 15.67984428
ECCENTRICITY   = .0001149
INCLINATION    = 53.1592
RA_OF_ASC_NODE = 207.3614
ARG_OF_PERICENTER = 107.2554
MEAN_ANOMALY   = 56.6630

EPHEMERIS_TYPE = 0
CLASSIFICATION_TYPE = U
NORAD_CAT_ID   = 66625
ELEMENT_SET_NO = 999
REV_AT_EPOCH   = 357
BSTAR          = -.19233182E-1
MEAN_MOTION_DOT = -.192253E-1
MEAN_MOTION_DDOT = 0

CCSDS_OMM_VERS = 2.0
CREATION_DATE  = 
ORIGINATOR     = 

OBJECT_NAME    = STARLINK-35902
OBJECT_ID      = 2025-271K
CENTER_NAME    = EARTH
REF_FRAME      = TEME
TIME_SYSTEM    = UTC
MEAN_ELEMENT_THEORY = SGP/SGP4

EPOCH          = 2025-12-08T14:00:01.999872
MEAN_MOTION    = 15.67986943
ECCENTRICITY   = .0001163
INCLINATION    = 53.1596
RA_OF_ASC_NODE = 207.3571
ARG_OF_PERICENTER = 106.5558
MEAN_ANOMALY   = 59.2762

EPHEMERIS_TYPE = 0
CLASSIFICATION_TYPE = U
NORAD_CAT_ID   = 66626
ELEMENT_SET_NO = 999
REV_AT_EPOCH   = 357
BSTAR          = -.19245059E-1
MEAN_MOTION_DOT = -.1923767E-1
MEAN_MOTION_DDOT = 0

CCSDS_OMM_VERS = 2.0
CREATION_DATE  = 
ORIGINATOR     = 

OBJECT_NAME    = STARLINK-35904
OBJECT_ID      = 2025-271L
CENTER_NAME    = EARTH
REF_FRAME      = TEME
TIME_SYSTEM    = UTC
MEAN_ELEMENT_THEORY = SGP/SGP4

EPOCH          = 2025-12-08T14:00:01.999872
MEAN_MOTION    = 15.67985829
ECCENTRICITY   = .00010678
INCLINATION    = 53.1595
RA_OF_ASC_NODE = 207.3526
ARG_OF_PERICENTER = 107.7598
MEAN_ANOMALY   = 59.9890

EPHEMERIS_TYPE = 0
CLASSIFICATION_TYPE = U
NORAD_CAT_ID   = 66627
ELEMENT_SET_NO = 999
REV_AT_EPOCH   = 341
BSTAR          = -.19228584E-1
MEAN_MOTION_DOT = -.1922163E-1
MEAN_MOTION_DDOT = 0

CCSDS_OMM_VERS = 2.0
CREATION_DATE  = 
ORIGINATOR     = 

OBJECT_NAME    = STARLINK-35862
OBJECT_ID      = 2025-271M
CENTER_NAME    = EARTH
REF_FRAME      = TEME
TIME_SYSTEM    = UTC
MEAN_ELEMENT_THEORY = SGP/SGP4

EPOCH          = 2025-12-08T14:00:01.999872
MEAN_MOTION    = 15.67987300
ECCENTRICITY   = .00012119
INCLINATION    = 53.1595
RA_OF_ASC_NODE = 207.3491
ARG_OF_PERICENTER = 109.6763
MEAN_ANOMALY   = 59.9904

EPHEMERIS_TYPE = 0
CLASSIFICATION_TYPE = U
NORAD_CAT_ID   = 66628
ELEMENT_SET_NO = 999
REV_AT_EPOCH   = 357
BSTAR          = -.19263103E-1
MEAN_MOTION_DOT = -.1925423E-1
MEAN_MOTION_DDOT = 0

CCSDS_OMM_VERS = 2.0
CREATION_DATE  = 
ORIGINATOR     = 

OBJECT_NAME    = STARLINK-35956
OBJECT_ID      = 2025-271N
CENTER_NAME    = EARTH
REF_FRAME      = TEME
TIME_SYSTEM    = UTC
MEAN_ELEMENT_THEORY = SGP/SGP4

EPOCH          = 2025-12-08T14:00:01.999872
MEAN_MOTION    = 15.67985559
ECCENTRICITY   = .00011962
INCLINATION    = 53.1593
RA_OF_ASC_NODE = 207.3455
ARG_OF_PERICENTER = 107.0410
MEAN_ANOMALY   = 64.5432

EPHEMERIS_TYPE = 0
CLASSIFICATION_TYPE = U
NORAD_CAT_ID   = 66629
ELEMENT_SET_NO = 999
REV_AT_EPOCH   = 357
BSTAR          = -.19233346E-1
MEAN_MOTION_DOT = -.1922657E-1
MEAN_MOTION_DDOT = 0

CCSDS_OMM_VERS = 2.0
CREATION_DATE  = 
ORIGINATOR     = 

OBJECT_NAME    = STARLINK-35949
OBJECT_ID      = 2025-271P
CENTER_NAME    = EARTH
REF_FRAME      = TEME
TIME_SYSTEM    = UTC
MEAN_ELEMENT_THEORY = SGP/SGP4

EPOCH          = 2025-12-08T14:00:01.999872
MEAN_MOTION    = 15.67983988
ECCENTRICITY   = .00011615
INCLINATION    = 53.1590
RA_OF_ASC_NODE = 207.3409
ARG_OF_PERICENTER = 111.1446
MEAN_ANOMALY   = 62.3570

EPHEMERIS_TYPE = 0
CLASSIFICATION_TYPE = U
NORAD_CAT_ID   = 66630
ELEMENT_SET_NO = 999
REV_AT_EPOCH   = 357
BSTAR          = -.19214016E-1
MEAN_MOTION_DOT = -.1920812E-1
MEAN_MOTION_DDOT = 0

CCSDS_OMM_VERS = 2.0
CREATION_DATE  = 
ORIGINATOR     = 

OBJECT_NAME    = STARLINK-35965
OBJECT_ID      = 2025-271Q
CENTER_NAME    = EARTH
REF_FRAME      = TEME
TIME_SYSTEM    = UTC
MEAN_ELEMENT_THEORY = SGP/SGP4

EPOCH          = 2025-12-08T14:00:01.999872
MEAN_MOTION    = 15.67981891
ECCENTRICITY   = .00010348
INCLINATION    = 53.1593
RA_OF_ASC_NODE = 207.3373
ARG_OF_PERICENTER = 112.3454
MEAN_ANOMALY   = 63.0735

EPHEMERIS_TYPE = 0
CLASSIFICATION_TYPE = U
NORAD_CAT_ID   = 66631
ELEMENT_SET_NO = 999
REV_AT_EPOCH   = 357
BSTAR          = -.19189046E-1
MEAN_MOTION_DOT = -.1918365E-1
MEAN_MOTION_DDOT = 0

CCSDS_OMM_VERS = 2.0
CREATION_DATE  = 
ORIGINATOR     = 

OBJECT_NAME    = STARLINK-35973
OBJECT_ID      = 2025-271R
CENTER_NAME    = EARTH
REF_FRAME      = TEME
TIME_SYSTEM    = UTC
MEAN_ELEMENT_THEORY = SGP/SGP4

EPOCH          = 2025-12-08T14:00:01.999872
MEAN_MOTION    = 15.67986922
ECCENTRICITY   = .00011936
INCLINATION    = 53.1595
RA_OF_ASC_NODE = 207.3332
ARG_OF_PERICENTER = 105.2130
MEAN_ANOMALY   = 72.1210

EPHEMERIS_TYPE = 0
CLASSIFICATION_TYPE = U
NORAD_CAT_ID   = 66632
ELEMENT_SET_NO = 999
REV_AT_EPOCH   = 351
BSTAR          = -.19247774E-1
MEAN_MOTION_DOT = -.1924027E-1
MEAN_MOTION_DDOT = 0

CCSDS_OMM_VERS = 2.0
CREATION_DATE  = 
ORIGINATOR     = 

OBJECT_NAME    = STARLINK-35948
OBJECT_ID      = 2025-271S
CENTER_NAME    = EARTH
REF_FRAME      = TEME
TIME_SYSTEM    = UTC
MEAN_ELEMENT_THEORY = SGP/SGP4

EPOCH          = 2025-12-08T14:00:01.999872
MEAN_MOTION    = 15.67982344
ECCENTRICITY   = .00011137
INCLINATION    = 53.1594
RA_OF_ASC_NODE = 207.3285
ARG_OF_PERICENTER = 108.4311
MEAN_ANOMALY   = 70.8214

EPHEMERIS_TYPE = 0
CLASSIFICATION_TYPE = U
NORAD_CAT_ID   = 66633
ELEMENT_SET_NO = 999
REV_AT_EPOCH   = 357
BSTAR          = -.19183523E-1
MEAN_MOTION_DOT = -.1917964E-1
MEAN_MOTION_DDOT = 0

CCSDS_OMM_VERS = 2.0
CREATION_DATE  = 
ORIGINATOR     = 

OBJECT_NAME    = STARLINK-35967
OBJECT_ID      = 2025-271T
CENTER_NAME    = EARTH
REF_FRAME      = TEME
TIME_SYSTEM    = UTC
MEAN_ELEMENT_THEORY = SGP/SGP4

EPOCH          = 2025-12-08T14:00:01.999872
MEAN_MOTION    = 15.67983878
ECCENTRICITY   = .00011763
INCLINATION    = 53.1592
RA_OF_ASC_NODE = 207.3240
ARG_OF_PERICENTER = 111.4409
MEAN_ANOMALY   = 69.7281

EPHEMERIS_TYPE = 0
CLASSIFICATION_TYPE = U
NORAD_CAT_ID   = 66634
ELEMENT_SET_NO = 999
REV_AT_EPOCH   = 350
BSTAR          = -.19207106E-1
MEAN_MOTION_DOT = -.1920203E-1
MEAN_MOTION_DDOT = 0

