STARLINK-35920          
1 66623U 25271G   25342.58335648 -.01907098  00000+0 -19068-1 0  9998
2 66623  53.1594 207.3654 0001223  94.6676  67.3420 15.67971642  3570
STARLINK-35927          
1 66624U 25271H   25342.58335648 -.01921736  00000+0 -19224-1 0  9998
2 66624  53.1595 207.3697 0001107 100.5786  59.5044 15.67985021  3570
STARLINK-35929          
1 66625U 25271J   25342.58335648 -.01922530  00000+0 -19233-1 0  9992
2 66625  53.1592 207.3614 0001149 107.2554  56.6630 15.67984428  3579
STARLINK-35902          
1 66626U 25271K   25342.58335648 -.01923767  00000+0 -19245-1 0  9999
2 66626  53.1596 207.3571 0001163 106.5558  59.2762 15.67986943  3577
STARLINK-35904          
1 66627U 25271L   25342.58335648 -.01922163  00000+0 -19229-1 0  9991
2 66627  53.1595 207.3526 0001067 107.7598  59.9890 15.67985829  3411
STARLINK-35862          
1 66628U 25271M   25342.58335648 -.01925423  00000+0 -19263-1 0  9992
2 66628  53.1595 207.3491 0001211 109.6763  59.9904 15.67987300  3578
STARLINK-35956          
1 66629U 25271N   25342.58335648 -.01922657  00000+0 -19233-1 0  9996
2 66629  53.1593 207.3455 0001196 107.0410  64.5432 15.67985559  3572
STARLINK-35949          
1 66630U 25271P   25342.58335648 -.01920812  00000+0 -19214-1 0  9998
2 66630  53.1590 207.3409 0001161 111.1446  62.3570 15.67983988  3570
STARLINK-35965          
1 66631U 25271Q   25342.58335648 -.01918365  00000+0 -19189-1 0  9990
2 66631  53.1593 207.3373 0001034 112.3454  63.0735 15.67981891  3577
STARLINK-35973          
1 66632U 25271R   25342.58335648 -.01924027  00000+0 -19248-1 0  9999
2 66632  53.1595 207.3332 0001193 105.2130  72.1210 15.67986922  3516
STARLINK-35948          
1 66633U 25271S   25342.58335648 -.01917964  00000+0 -19184-1 0  9991
2 66633  53.1594 207.3285 0001113 108.4311  70.8214 15.67982344  3570
STARLINK-35967          
1 66634U 25271T   25342.58335648 -.01920203  00000+0 -19207-1 0  9998
2 66634  53.1592 207.3240 0001176 111.4409  69.7281 15.67983878  3508
